INTELSAT 21 (IS-21)     
1 38749U 12045A   23285.52244932 -.00000280  00000+0  00000+0 0  9993
2 38749   0.0133 180.5231 0002268  20.0301 310.3578  1.00265554 40711
ASTRA 2F                
1 38778U 12051A   23285.53959278  .00000154  00000+0  00000+0 0  9998
2 38778   0.0527 242.4914 0004233 332.9798  27.8274  1.00272300 31311
GSAT-10                 
1 38779U 12051B   23285.59774630 -.00000161  00000+0  00000+0 0  9991
2 38779   0.0503  94.2246 0003356 159.0963  65.8185  1.00272221 40308
INTELSAT 23 (IS-23)     
1 38867U 12057A   23285.60272149 -.00000280  00000+0  00000+0 0  9997
2 38867   0.0260 244.5450 0000786 335.7618 324.6262  1.00270349 40139
BEIDOU-2 G6             
1 38953U 12059A   23285.48105001 -.00000170  00000+0  00000+0 0  9991
2 38953   1.9214  81.7686 0006835 301.1543 255.1152  1.00270706 40099
LUCH-5B                 
1 38977U 12061A   23285.17244439 -.00000126  00000+0  00000+0 0  9996
2 38977   8.3392  58.8034 0005498 129.1567 238.3221  1.00273419 39804
YAMAL 300K              
1 38978U 12061B   23285.41685250  .00000074  00000+0  00000+0 0  9995
2 38978   0.0141 197.7973 0000896  41.7608 114.1784  1.00265929 39816
STAR ONE C3             
1 38991U 12062A   23285.51905545 -.00000245  00000+0  00000+0 0  9995
2 38991   0.0196 113.0080 0002352 102.3229 277.3972  1.00271291 39947
EUTELSAT 21B            
1 38992U 12062B   23285.53828743  .00000134  00000+0  00000+0 0  9998
2 38992   0.0715  15.6124 0002666 184.7248  35.9057  1.00271892 40024
ECHOSTAR 16             
1 39008U 12065A   23285.52175314 -.00000277  00000+0  00000+0 0  9997
2 39008   0.0219 194.3268 0001918   0.3773 312.4680  1.00267845 39814
CHINASAT 12 (ZX 12)     
1 39017U 12067A   23285.48105001 -.00000204  00000+0  00000+0 0  9990
2 39017   0.0229 127.5117 0003113  90.7518  63.2446  1.00271980 39697
EUTELSAT 70B            
1 39020U 12069A   23285.60528286 -.00000040  00000+0  00000+0 0  9992
2 39020   0.0680  17.3560 0004089 193.4239  98.5506  1.00271650 39696
YAMAL 402               
1 39022U 12070A   23285.61039969  .00000090  00000+0  00000+0 0  9996
2 39022   0.0191 252.2786 0004053 316.7120  86.6015  1.00273292 39580
SKYNET 5D               
1 39034U 12075A   23285.55535706  .00000103  00000+0  00000+0 0  9992
2 39034   0.0731   8.9997 0004276 201.2217  63.3189  1.00272795 39340
MEXSAT 3                
1 39035U 12075B   23285.64714174 -.00000021  00000+0  00000+0 0  9991
2 39035   0.0196 146.6131 0001622  83.5149 269.0143  1.00273242 39379
TDRS 11                 
1 39070U 13004A   23285.57235566  .00000085  00000+0  00000+0 0  9997
2 39070   2.6942   2.3892 0003812  76.1977 333.9716  1.00274494 36887
AMAZONAS 3              
1 39078U 13006A   23285.52184016 -.00000278  00000+0  00000+0 0  9990
2 39078   0.0187 193.1941 0005035  20.5462 293.9987  1.00272516 35093
AZERSPACE 1             
1 39079U 13006B   23285.55535706  .00000137  00000+0  00000+0 0  9993
2 39079   0.0402  70.1474 0002072 159.9994  36.6526  1.00272130 38999
SBIRS GEO-2 (USA 241)   
1 39120U 13011A   23285.45474573 -.00000251  00000+0  00000+0 0  9997
2 39120   2.5428  41.5667 0002081 165.2137 299.7150  1.00271382 38720
EUTELSAT 117 WEST A     
1 39122U 13012A   23285.64633396 -.00000008  00000+0  00000+0 0  9991
2 39122   0.0580  73.1721 0002839 128.3876 295.2945  1.00272204 38623
ANIK G1                 
1 39127U 13014A   23285.57321831 -.00000070  00000+0  00000+0 0  9997
2 39127   0.0566  87.8946 0002282 136.9735 255.1043  1.00272060 38448
CHINASAT 11 (ZX 11)     
1 39157U 13020A   23285.48180976 -.00000286  00000+0  00000+0 0  9999
2 39157   0.0400 261.7653 0001803   3.7153  26.6415  1.00269474 38088
EUTELSAT 7B             
1 39163U 13022A   23285.53532867  .00000052  00000+0  00000+0 0  9994
2 39163   0.0702   7.0320 0001461 314.1072 259.4489  1.00270927 38151
WGS F5 (USA 243)        
1 39168U 13024A   23285.50813157 -.00000280  00000+0  00000+0 0  9996
2 39168   0.0010 131.1563 0000225  66.3933 313.7442  1.00273845 37362
SES-6                   
1 39172U 13026A   23285.50257705 -.00000257  00000+0  00000+0 0  9998
2 39172   0.0207 101.2922 0001895 111.3361 308.6105  1.00268787 37911
IRNSS-1A                
1 39199U 13034A   23285.00813442  .00000111  00000+0  00000+0 0  9995
2 39199  33.5121  78.1314 0021312 180.2649 179.9760  1.00277493 37553
MUOS-2                  
1 39206U 13036A   23285.60706101  .00000072  00000+0  00000+0 0  9991
2 39206   3.2358  36.2340 0058588 178.4608 207.7501  1.00270150 37388
ALPHASAT                
1 39215U 13038A   23285.53889660  .00000140  00000+0  00000+0 0  9993
2 39215   2.8526   9.5934 0003684 204.4864  25.6473  1.00271967 34203
INSAT-3D                
1 39216U 13038B   23285.60515755 -.00000152  00000+0  00000+0 0  9997
2 39216   0.0505  81.2360 0002066 148.2287  91.3973  1.00271455 37264
WGS F6 (USA 244)        
1 39222U 13041A   23285.55644291  .00000093  00000+0  00000+0 0  9993
2 39222   0.0179 200.6390 0000342  73.6395 171.7582  1.00272420 36232
ES'HAIL 1               
1 39233U 13044A   23285.53907064  .00000147  00000+0  00000+0 0  9996
2 39233   0.0572   6.5916 0001964 187.8765  45.9841  1.00268877 36813
GSAT-7                  
1 39234U 13044B   23285.47827112 -.00000074  00000+0  00000+0 0  9995
2 39234   0.0911  86.1807 0008530 165.5361  15.2724  1.00272887 35517
AMOS-4                  
1 39237U 13045A   23285.54979998  .00000011  00000+0  00000+0 0  9997
2 39237   0.0156 213.1165 0001589  30.5361  40.1425  1.00272314 37149
AEHF-3 (USA 246)        
1 39256U 13050A   23285.71798916  .00000141  00000+0  00000+0 0  9996
2 39256   2.8581  73.7573 0052779 174.3677 236.4870  1.00297143 36879
ASTRA 2E                
1 39285U 13056A   23285.53967980  .00000154  00000+0  00000+0 0  9997
2 39285   0.0938 311.0264 0002741 249.9700  42.6280  1.00271168 36626
FM-6                    
1 39360U 13058A   23285.49099067 -.00000013  00000+0  00000+0 0  9995
2 39360   0.0179 250.2420 0000208 147.8796  43.2867  1.00273139 36248
RADUGA-1M 3             
1 39375U 13062A   23285.54098514  .00000162  00000+0  00000+0 0  9992
2 39375   3.4549  84.1449 0001643 294.5897 231.8887  1.00273157 36295
SES-8                   
1 39460U 13071A   23285.48128762 -.00000266  00000+0  00000+0 0  9995
2 39460   0.0210 246.3694 0001686 267.6312 135.0776  1.00274018 34615
INMARSAT 5-F1           
1 39476U 13073A   23285.59846632  .00000032  00000+0  00000+0 0  9999
2 39476   0.0023 180.9734 0000350 321.7831 156.2298  1.00270269 35773
TKSAT-1 (TUPAC KATARI)  
1 39481U 13075A   23285.51661880 -.00000191  00000+0  00000+0 0  9996
2 39481   0.0604  47.2888 0002387 148.0694 284.2581  1.00274109 35783
EXPRESS-AM5             
1 39487U 13077A   23285.38272083 -.00000276  00000+0  00000+0 0  9996
2 39487   0.0153 225.6316 0000228 126.9048 306.0020  1.00272749 36540
GSAT-14                 
1 39498U 14001A   23285.47827112 -.00000074  00000+0  00000+0 0  9991
2 39498   0.0430  79.6110 0005470 164.5839  22.7906  1.00271681 35570
THAICOM 6               
1 39500U 14002A   23285.56604376 -.00000117  00000+0  00000+0 0  9999
2 39500   0.0724 104.3789 0003608  78.5385 120.2654  1.00270288 35643
TDRS 12                 
1 39504U 14004A   23285.57604245 -.00000269  00000+0  00000+0 0  9999
2 39504   3.5799 357.3374 0005765 203.9308 346.0767  1.00268240 34469
ABS-2                   
1 39508U 14006A   23285.47792391 -.00000083  00000+0  00000+0 0  9998
2 39508   0.0645  83.3782 0003261 124.6903  59.7240  1.00272519 35473
ATHENA-FIDUS            
1 39509U 14006B   23285.54150727  .00000158  00000+0  00000+0 0  9990
2 39509   0.0151 191.6535 0001520  30.9048  31.0498  1.00272508 35263
TURKSAT 4A              
1 39522U 14007A   23285.54237750  .00000150  00000+0  00000+0 0  9990
2 39522   0.0540 261.7860 0004235 321.8466  34.5328  1.00275994 35174
EXPRESS-AT1             
1 39612U 14010A   23285.62315083  .00000082  00000+0  00000+0 0  9993
2 39612   0.0144 251.6651 0000162 203.0554 206.5725  1.00273065 35005
EXPRESS-AT2             
1 39613U 14010B   23285.61887990 -.00000277  00000+0  00000+0 0  9991
2 39613   0.0253 259.9878 0001001  58.4198  65.1985  1.00273262 34698
AMAZONAS 4A             
1 39616U 14011A   23285.51922948 -.00000248  00000+0  00000+0 0  9995
2 39616   0.0304 143.7755 0004164  74.0433 275.9594  1.00274087 34896
ASTRA 5B                
1 39617U 14011B   23285.53863552  .00000141  00000+0  00000+0 0  9994
2 39617   0.0731 305.5994 0003494 275.8442  16.8199  1.00272936 34850
IRNSS-1B                
1 39635U 14017A   23285.00813442  .00000089  00000+0  00000+0 0  9996
2 39635  28.6316 257.0326 0018702 190.6731 350.6579  1.00276744 34973
LUCH-5V                 
1 39727U 14023A   23285.57929855 -.00000261  00000+0  00000+0 0  9996
2 39727   2.6693  77.1137 0004137 157.4233  89.5849  1.00267973 34546
KAZSAT-3                
1 39728U 14023B   23285.54979998  .00000063  00000+0  00000+0 0  9996
2 39728   0.0138 219.8476 0000628 178.5618 238.9303  1.00279933 32638
EUTELSAT 3B             
1 39773U 14030A   23285.31959961  .00000023  00000+0  00000+0 0  9993
2 39773   0.0660  18.6645 0005748 187.8058 292.3335  1.00272450 34256
ASIASAT 8 (AMOS-7)      
1 40107U 14046A   23285.42189111 -.00000029  00000+0  00000+0 0  9994
2 40107   0.0164  30.1606 0002164 191.1460 307.4701  1.00273784 92337
ASIASAT 6               
1 40141U 14052A   23285.59329713 -.00000358  00000+0  00000+0 0  9996
2 40141   0.0301 260.8443 0000884 327.4612 126.1135  1.00271353 33252
OPTUS 10                
1 40146U 14054A   23283.50396729 -.00000150  00000+0  00000+0 0  9993
2 40146   0.0919 356.2551 0004105 196.7768 163.2557  1.00270346 33195
MEASAT-3B               
1 40147U 14054B   23285.64192742 -.00000238  00000+0  00000+0 0  9997
2 40147   0.0473  43.9248 0000858 157.6480 142.0137  1.00271933 33105
